COSMOS 2426 (717)       
1 29671U 06062B   20102.49918727  .00000021  00000-0  10000-3 0  9998
2 29671  64.9953 270.1733 0019801 170.1180 227.6574  2.12962376103479
COSMOS 2433 (720)       
1 32275U 07052A   20102.07635890 -.00000065  00000-0  10000-3 0  9992
2 32275  65.9627  31.1653 0003988 280.5389 258.3792  2.13104364 96979
COSMOS 2432 (719)       
1 32276U 07052B   20101.73867846 -.00000064  00000-0  10000-3 0  9992
2 32276  65.9738  31.2641 0012423 328.9552 261.2429  2.13103771 96964
COSMOS 2434 (721)       
1 32393U 07065A   20102.01852485  .00000018  00000-0  00000-0 0  9995
2 32393  64.5990 268.7310 0005169  86.9092 295.1381  2.13103062 95682
COSMOS 2436 (723)       
1 32395U 07065C   20102.35502475  .00000020  00000-0  10000-3 0  9992
2 32395  64.6079 268.7683 0015059   8.3336  48.1256  2.13102981 95624
COSMOS 2456 (730)       
1 36111U 09070A   20102.22026434  .00000031  00000-0  00000+0 0  9999
2 36111  64.2193 148.3946 0005378 307.1835  43.0355  2.13102870 80343
COSMOS 2457 (733)       
1 36112U 09070B   20102.15820587  .00000032  00000-0  00000-0 0  9995
2 36112  64.2034 148.2921 0005009 184.8721 241.3362  2.13101482 80355
COSMOS 2459 (731)       
1 36400U 10007A   20102.14753334 -.00000066  00000-0  10000-3 0  9993
2 36400  65.8653  30.1428 0027279 348.4140 100.2796  2.13105221 78701
COSMOS 2461 (735)       
1 36401U 10007B   20102.14083588 -.00000066  00000-0  10000-3 0  9991
2 36401  65.8579  30.1133 0007050  47.6495 304.7601  2.13102061 78691
COSMOS 2460 (732)       
1 36402U 10007C   20102.13869352 -.00000067  00000-0  10000-3 0  9993
2 36402  65.8470  30.0731 0001951 328.9551  61.0746  2.13101488 78704
COSMOS 2464 (736)       
1 37139U 10041C   20101.75684120  .00000016  00000-0  00000+0 0  9992
2 37139  64.2010 268.2139 0027477  15.0593  30.3447  2.13100707 74765
COSMOS 2474 (742)       
1 37829U 11055A   20101.62142773  .00000039  00000-0  00000-0 0  9999
2 37829  64.5397 149.4118 0010005 247.7245 218.1511  2.13101786 66336
COSMOS 2476 (744)       
1 37867U 11064A   20102.50062215  .00000028  00000-0  00000+0 0  9998
2 37867  64.5212 149.4287 0020658 241.1113 225.4834  2.13101972 65704
COSMOS 2477 (745)       
1 37868U 11064B   20102.23479394  .00000031  00000-0  00000+0 0  9993
2 37868  64.5282 149.4937 0018324 242.3674 198.8223  2.13101772 65653
COSMOS 2475 (743)       
1 37869U 11064C   20102.06454613  .00000033  00000-0  00000+0 0  9994
2 37869  64.5351 149.5001 0022441 262.5120   5.3909  2.13101920 65657
COSMOS 2485 (747)       
1 39155U 13019A   20102.19627769  .00000032  00000-0  00000-0 0  9994
2 39155  64.6877 149.6915 0021088 236.7374  40.9665  2.13101904 54166
COSMOS 2492 (754)       
1 39620U 14012A   20102.39765888 -.00000068  00000-0  10000-3 0  9996
2 39620  65.7380  29.8557 0015539 325.8654 141.4349  2.13103351 47122
COSMOS 2500 (755)       
1 40001U 14032A   20101.80640877 -.00000066  00000-0  00000-0 0  9992
2 40001  65.6786  29.7963 0005565 224.8039   9.6067  2.13102706 45324
COSMOS 2501 (702K)      
1 40315U 14075A   20102.05620417  .00000016  00000-0  00000-0 0  9997
2 40315  63.9199 269.1744 0015103 203.7648  17.8011  2.13098586 41730
COSMOS 2514 (751)       
1 41330U 16008A   20101.98749275 -.00000067  00000-0  00000+0 0  9994
2 41330  65.4799  29.6806 0009226 227.8769 327.7539  2.13103114 32494
COSMOS 2516 (753)       
1 41554U 16032A   20102.42920792  .00000019  00000-0  00000+0 0  9990
2 41554  64.1428 269.2149 0010682 212.4771 212.7602  2.13101762 30118
COSMOS 2522 (752)       
1 42939U 17055A   20102.32545486  .00000019  00000-0  00000+0 0  9996
2 42939  64.3741 269.3761 0005118 246.7861 325.4201  2.13101933 19861
COSMOS 2527 (756)       
1 43508U 18053A   20102.10215550  .00000033  00000-0  00000+0 0  9996
2 43508  64.8531 149.5301 0008516 239.2199 193.3813  2.13102639 14153
COSMOS 2529 (757)       
1 43687U 18086A   20101.68864638  .00000016  00000-0  00000-0 0  9991
2 43687  64.5877 269.5007 0007829 278.5077 120.7827  2.13102076 11166
COSMOS 2534 (758)       
1 44299U 19030A   20102.43040282  .00000020  00000-0  00000+0 0  9990
2 44299  64.6543 269.2847 0011407 298.1972  85.2148  2.13102032  6825
